[{"OBJECT_NAME":"STARLINK-3208","OBJECT_ID":"2021-115AX","EPOCH":"2026-01-16T23:52:50.865888","MEAN_MOTION":15.0883769,"ECCENTRICITY":0.0001576,"INCLINATION":53.2198,"RA_OF_ASC_NODE":11.2353,"ARG_OF_PERICENTER":91.0895,"MEAN_ANOMALY":269.0277,"EPHEMERIS_TYPE":0,"CLASSIFICATION_TYPE":"U","NORAD_CAT_ID":49769,"ELEMENT_SET_NO":999,"REV_AT_EPOCH":22787,"BSTAR":-5.471119e-6,"MEAN_MOTION_DOT":-3.75e-6,"MEAN_MOTION_DDOT":0},{"OBJECT_NAME":"STARLINK-3191","OBJECT_ID":"2021-115AY","EPOCH":"2026-01-17T00:03:26.896032","MEAN_MOTION":15.0883656,"ECCENTRICITY":0.00015484,"INCLINATION":53.2201,"RA_OF_ASC_NODE":11.2026,"ARG_OF_PERICENTER":88.4871,"MEAN_ANOMALY":271.6299,"EPHEMERIS_TYPE":0,"CLASSIFICATION_TYPE":"U","NORAD_CAT_ID":49770,"ELEMENT_SET_NO":999,"REV_AT_EPOCH":22899,"BSTAR":-1.2456901e-5,"MEAN_MOTION_DOT":-4.86e-6,"MEAN_MOTION_DDOT":0},{"OBJECT_NAME":"STARLINK-3201","OBJECT_ID":"2021-115AZ","EPOCH":"2026-01-17T00:02:03.612480","MEAN_MOTION":15.08837922,"ECCENTRICITY":0.00016097,"INCLINATION":53.2191,"RA_OF_ASC_NODE":11.1579,"ARG_OF_PERICENTER":88.4629,"MEAN_ANOMALY":271.6548,"EPHEMERIS_TYPE":0,"CLASSIFICATION_TYPE":"U","NORAD_CAT_ID":49771,"ELEMENT_SET_NO":999,"REV_AT_EPOCH":22787,"BSTAR":5.68572e-5,"MEAN_MOTION_DOT":6.17e-6,"MEAN_MOTION_DDOT":0},{"OBJECT_NAME":"STARLINK-3297","OBJECT_ID":"2021-125D","EPOCH":"2026-01-16T15:08:13.468416","MEAN_MOTION":15.0883744,"ECCENTRICITY":0.00013018,"INCLINATION":53.2178,"RA_OF_ASC_NODE":132.8349,"ARG_OF_PERICENTER":78.9506,"MEAN_ANOMALY":281.1632,"EPHEMERIS_TYPE":0,"CLASSIFICATION_TYPE":"U","NORAD_CAT_ID":50159,"ELEMENT_SET_NO":999,"REV_AT_EPOCH":22859,"BSTAR":1.48105e-6,"MEAN_MOTION_DOT":-2.64e-6,"MEAN_MOTION_DDOT":0},{"OBJECT_NAME":"STARLINK-3304","OBJECT_ID":"2021-125F","EPOCH":"2026-01-16T15:22:44.694912","MEAN_MOTION":15.08836325,"ECCENTRICITY":0.00013097,"INCLINATION":53.2178,"RA_OF_ASC_NODE":132.7799,"ARG_OF_PERICENTER":84.329,"MEAN_ANOMALY":275.7851,"EPHEMERIS_TYPE":0,"CLASSIFICATION_TYPE":"U","NORAD_CAT_ID":50161,"ELEMENT_SET_NO":999,"REV_AT_EPOCH":22859,"BSTAR":-1.0878423e-5,"MEAN_MOTION_DOT":-4.61e-6,"MEAN_MOTION_DDOT":0},{"OBJECT_NAME":"STARLINK-3306","OBJECT_ID":"2021-125H","EPOCH":"2026-01-16T22:55:48.758016","MEAN_MOTION":15.0884413,"ECCENTRICITY":0.0001033,"INCLINATION":53.2192,"RA_OF_ASC_NODE":111.3533,"ARG_OF_PERICENTER":82.5146,"MEAN_ANOMALY":277.5963,"EPHEMERIS_TYPE":0,"CLASSIFICATION_TYPE":"U","NORAD_CAT_ID":50163,"ELEMENT_SET_NO":999,"REV_AT_EPOCH":22892,"BSTAR":4.8650898e-5,"MEAN_MOTION_DOT":4.87e-6,"MEAN_MOTION_DDOT":0},{"OBJECT_NAME":"STARLINK-3298","OBJECT_ID":"2021-125K","EPOCH":"2026-01-16T16:36:56.005632","MEAN_MOTION":15.08837726,"ECCENTRICITY":0.00011235,"INCLINATION":53.2177,"RA_OF_ASC_NODE":132.5486,"ARG_OF_PERICENTER":85.7011,"MEAN_ANOMALY":274.411,"EPHEMERIS_TYPE":0,"CLASSIFICATION_TYPE":"U","NORAD_CAT_ID":50165,"ELEMENT_SET_NO":999,"REV_AT_EPOCH":22865,"BSTAR":1.7375499e-5,"MEAN_MOTION_DOT":-1.1e-7,"MEAN_MOTION_DDOT":0},{"OBJECT_NAME":"STARLINK-3305","OBJECT_ID":"2021-125L","EPOCH":"2026-01-16T23:22:21.380448","MEAN_MOTION":15.08839642,"ECCENTRICITY":0.00011667,"INCLINATION":53.2183,"RA_OF_ASC_NODE":121.2146,"ARG_OF_PERICENTER":85.6429,"MEAN_ANOMALY":274.4696,"EPHEMERIS_TYPE":0,"CLASSIFICATION_TYPE":"U","NORAD_CAT_ID":50166,"ELEMENT_SET_NO":999,"REV_AT_EPOCH":22878,"BSTAR":1.546763e-6,"MEAN_MOTION_DOT":-2.63e-6,"MEAN_MOTION_DDOT":0},{"OBJECT_NAME":"STARLINK-3271","OBJECT_ID":"2021-125M","EPOCH":"2026-01-16T16:27:43.792992","MEAN_MOTION":15.08832021,"ECCENTRICITY":0.00014426,"INCLINATION":53.218,"RA_OF_ASC_NODE":132.5881,"ARG_OF_PERICENTER":98.4498,"MEAN_ANOMALY":261.6657,"EPHEMERIS_TYPE":0,"CLASSIFICATION_TYPE":"U","NORAD_CAT_ID":50167,"ELEMENT_SET_NO":999,"REV_AT_EPOCH":22860,"BSTAR":0.00021594897,"MEAN_MOTION_DOT":3.15e-5,"MEAN_MOTION_DDOT":0},{"OBJECT_NAME":"STARLINK-3301","OBJECT_ID":"2021-125P","EPOCH":"2026-01-16T13:11:35.018304","MEAN_MOTION":15.08844769,"ECCENTRICITY":0.00011153,"INCLINATION":53.2172,"RA_OF_ASC_NODE":123.1872,"ARG_OF_PERICENTER":88.9805,"MEAN_ANOMALY":271.1315,"EPHEMERIS_TYPE":0,"CLASSIFICATION_TYPE":"U","NORAD_CAT_ID":50169,"ELEMENT_SET_NO":999,"REV_AT_EPOCH":22873,"BSTAR":6.8339704e-5,"MEAN_MOTION_DOT":8.0e-6,"MEAN_MOTION_DDOT":0},{"OBJECT_NAME":"STARLINK-3245","OBJECT_ID":"2021-125Q","EPOCH":"2026-01-16T16:54:09.151776","MEAN_MOTION":15.08836819,"ECCENTRICITY":0.0001118,"INCLINATION":53.2178,"RA_OF_ASC_NODE":122.4908,"ARG_OF_PERICENTER":86.4118,"MEAN_ANOMALY":273.7002,"EPHEMERIS_TYPE":0,"CLASSIFICATION_TYPE":"U","NORAD_CAT_ID":50170,"ELEMENT_SET_NO":999,"REV_AT_EPOCH":22874,"BSTAR":-3.3406802e-5,"MEAN_MOTION_DOT":-8.19e-6,"MEAN_MOTION_DDOT":0},{"OBJECT_NAME":"STARLINK-3286","OBJECT_ID":"2021-125R","EPOCH":"2026-01-16T14:04:34.829472","MEAN_MOTION":15.08835273,"ECCENTRICITY":0.00010568,"INCLINATION":53.2171,"RA_OF_ASC_NODE":123.0221,"ARG_OF_PERICENTER":86.8178,"MEAN_ANOMALY":273.2935,"EPHEMERIS_TYPE":0,"CLASSIFICATION_TYPE":"U","NORAD_CAT_ID":50171,"ELEMENT_SET_NO":999,"REV_AT_EPOCH":22873,"BSTAR":-2.7940668e-5,"MEAN_MOTION_DOT":-7.32e-6,"MEAN_MOTION_DDOT":0},{"OBJECT_NAME":"STARLINK-3287","OBJECT_ID":"2021-125S","EPOCH":"2026-01-16T15:08:10.131648","MEAN_MOTION":15.08837453,"ECCENTRICITY":0.00012951,"INCLINATION":53.2172,"RA_OF_ASC_NODE":122.8211,"ARG_OF_PERICENTER":85.078,"MEAN_ANOMALY":275.036,"EPHEMERIS_TYPE":0,"CLASSIFICATION_TYPE":"U","NORAD_CAT_ID":50172,"ELEMENT_SET_NO":999,"REV_AT_EPOCH":22877,"BSTAR":-3.4363712e-5,"MEAN_MOTION_DOT":-8.35e-6,"MEAN_MOTION_DDOT":0},{"OBJECT_NAME":"STARLINK-3289","OBJECT_ID":"2021-125T","EPOCH":"2026-01-16T15:57:11.387232","MEAN_MOTION":15.08842595,"ECCENTRICITY":0.00012607,"INCLINATION":53.2179,"RA_OF_ASC_NODE":112.7375,"ARG_OF_PERICENTER":89.1263,"MEAN_ANOMALY":270.9873,"EPHEMERIS_TYPE":0,"CLASSIFICATION_TYPE":"U","NORAD_CAT_ID":50173,"ELEMENT_SET_NO":999,"REV_AT_EPOCH":22889,"BSTAR":3.712192e-5,"MEAN_MOTION_DOT":3.03e-6,"MEAN_MOTION_DDOT":0},{"OBJECT_NAME":"STARLINK-3292","OBJECT_ID":"2021-125U","EPOCH":"2026-01-16T15:55:21.109728","MEAN_MOTION":15.08843028,"ECCENTRICITY":0.00011645,"INCLINATION":53.2181,"RA_OF_ASC_NODE":118.287,"ARG_OF_PERICENTER":89.9053,"MEAN_ANOMALY":270.2073,"EPHEMERIS_TYPE":0,"CLASSIFICATION_TYPE":"U","NORAD_CAT_ID":50174,"ELEMENT_SET_NO":999,"REV_AT_EPOCH":22885,"BSTAR":2.7436735e-5,"MEAN_MOTION_DOT":1.49e-6,"MEAN_MOTION_DDOT":0},{"OBJECT_NAME":"STARLINK-3291","OBJECT_ID":"2021-125V","EPOCH":"2026-01-16T23:20:58.969536","MEAN_MOTION":15.08843804,"ECCENTRICITY":0.00011697,"INCLINATION":53.2182,"RA_OF_ASC_NODE":121.2861,"ARG_OF_PERICENTER":81.5838,"MEAN_ANOMALY":278.5286,"EPHEMERIS_TYPE":0,"CLASSIFICATION_TYPE":"U","NORAD_CAT_ID":50175,"ELEMENT_SET_NO":999,"REV_AT_EPOCH":22879,"BSTAR":6.0644034e-5,"MEAN_MOTION_DOT":6.78e-6,"MEAN_MOTION_DDOT":0}]
