STARLINK-3208           
1 49769U 21115AX  26016.99503317 -.00000375  00000+0 -54711-5 0  9996
2 49769  53.2198  11.2353 0001576  91.0895 269.0277 15.08837690227877
STARLINK-3191           
1 49770U 21115AY  26017.00239463 -.00000486  00000+0 -12457-4 0  9992
2 49770  53.2201  11.2026 0001548  88.4871 271.6299 15.08836560228996
STARLINK-3201           
1 49771U 21115AZ  26017.00143070  .00000617  00000+0  56857-4 0  9997
2 49771  53.2191  11.1579 0001609  88.4629 271.6548 15.08837922227872
STARLINK-3297           
1 50159U 21125D   26016.63071144 -.00000264  00000+0  14810-5 0  9993
2 50159  53.2178 132.8349 0001301  78.9506 281.1632 15.08837440228597
STARLINK-3304           
1 50161U 21125F   26016.64079508 -.00000461  00000+0 -10878-4 0  9998
2 50161  53.2178 132.7799 0001309  84.3290 275.7851 15.08836325228590
STARLINK-3306           
1 50163U 21125H   26016.95542544  .00000487  00000+0  48651-4 0  9995
2 50163  53.2192 111.3533 0001033  82.5146 277.5963 15.08844130228925
STARLINK-3298           
1 50165U 21125K   26016.69231488 -.00000011  00000+0  17375-4 0  9993
2 50165  53.2177 132.5486 0001123  85.7011 274.4110 15.08837726228651
STARLINK-3305           
1 50166U 21125L   26016.97385857 -.00000263  00000+0  15468-5 0  9996
2 50166  53.2183 121.2146 0001166  85.6429 274.4696 15.08839642228788
STARLINK-3271           
1 50167U 21125M   26016.68592353  .00003150  00000+0  21595-3 0  9999
2 50167  53.2180 132.5881 0001442  98.4498 261.6657 15.08832021228602
STARLINK-3301           
1 50169U 21125P   26016.54971086  .00000800  00000+0  68340-4 0  9999
2 50169  53.2172 123.1872 0001115  88.9805 271.1315 15.08844769228737
STARLINK-3245           
1 50170U 21125Q   26016.70427259 -.00000819  00000+0 -33407-4 0  9995
2 50170  53.2178 122.4908 0001118  86.4118 273.7002 15.08836819228749
STARLINK-3286           
1 50171U 21125R   26016.58651423 -.00000732  00000+0 -27941-4 0  9994
2 50171  53.2171 123.0221 0001056  86.8178 273.2935 15.08835273228731
STARLINK-3287           
1 50172U 21125S   26016.63067282 -.00000835  00000+0 -34364-4 0  9996
2 50172  53.2172 122.8211 0001295  85.0780 275.0360 15.08837453228772
STARLINK-3289           
1 50173U 21125T   26016.66471513  .00000303  00000+0  37122-4 0  9999
2 50173  53.2179 112.7375 0001260  89.1263 270.9873 15.08842595228891
STARLINK-3292           
1 50174U 21125U   26016.66343877  .00000149  00000+0  27437-4 0  9997
2 50174  53.2181 118.2870 0001164  89.9053 270.2073 15.08843028228857
STARLINK-3291           
1 50175U 21125V   26016.97290474  .00000678  00000+0  60644-4 0  9990
2 50175  53.2182 121.2861 0001169  81.5838 278.5286 15.08843804228799
